[
    {
        "Altitude(m)": 612502.2035369342,
        "Argument of Periapsis(deg)": 0.0,
        "Eccentricity": 0.0,
        "Inclination(deg)": 60.0,
        "Latitude(deg)": -28.136002035009685,
        "Longitude(deg)": 157.14819849459028,
        "Mean Anomaly(deg)": -32.72730000000006,
        "RAAN(deg)": 275.0,
        "Satellite Name": "Test1 1230",
        "Satellite Number": 1230,
        "Semi-Major Axis(m)": 6980739.136638005,
        "Time(s)": 0
    },
    {
        "Altitude(m)": 612308.651497736,
        "Argument of Periapsis(deg)": 0.00010418945913296404,
        "Eccentricity": 0.0,
        "Inclination(deg)": 60.0,
        "Latitude(deg)": -27.623057934806464,
        "Longitude(deg)": 157.50167382757806,
        "Mean Anomaly(deg)": -32.10719385453821,
        "RAAN(deg)": 274.9995799508602,
        "Satellite Name": "Test1 1230",
        "Satellite Number": 1230,
        "Semi-Major Axis(m)": 6980739.136638005,
        "Time(s)": 10
    },
    {
        "Altitude(m)": 612116.0683545108,
        "Argument of Periapsis(deg)": 0.0002083789182659281,
        "Eccentricity": 0.0,
        "Inclination(deg)": 60.0,
        "Latitude(deg)": -27.10894496597714,
        "Longitude(deg)": 157.85149799247858,
        "Mean Anomaly(deg)": -31.487087709076356,
        "RAAN(deg)": 274.9991599017205,
        "Satellite Name": "Test1 1230",
        "Satellite Number": 1230,
        "Semi-Major Axis(m)": 6980739.136638005,
        "Time(s)": 20
    },
    {
        "Altitude(m)": 611924.5236938539,
        "Argument of Periapsis(deg)": 0.00031256837739889213,
        "Eccentricity": 0.0,
        "Inclination(deg)": 60.0,
        "Latitude(deg)": -26.593697444123897,
        "Longitude(deg)": 158.19777540581129,
        "Mean Anomaly(deg)": -30.866981563614555,
        "RAAN(deg)": 274.9987398525808,
        "Satellite Name": "Test1 1230",
        "Satellite Number": 1230,
        "Semi-Major Axis(m)": 6980739.136638005,
        "Time(s)": 30
    },
    {
        "Altitude(m)": 611734.0864957366,
        "Argument of Periapsis(deg)": 0.0004167578365318562,
        "Eccentricity": 0.0,
        "Inclination(deg)": 60.0,
        "Latitude(deg)": -26.077348835502168,
        "Longitude(deg)": 158.54060876650817,
        "Mean Anomaly(deg)": -30.2468754181527,
        "RAAN(deg)": 274.998319803441,
        "Satellite Name": "Test1 1230",
        "Satellite Number": 1230,
        "Semi-Major Axis(m)": 6980739.136638005,
        "Time(s)": 40
    },
    {
        "Altitude(m)": 611544.8251030201,
        "Argument of Periapsis(deg)": 0.0005209472956648203,
        "Eccentricity": 0.0,
        "Inclination(deg)": 60.0,
        "Latitude(deg)": -25.55993178942138,
        "Longitude(deg)": 158.8800981111731,
        "Mean Anomaly(deg)": -29.62676927269085,
        "RAAN(deg)": 274.9978997543013,
        "Satellite Name": "Test1 1230",
        "Satellite Number": 1230,
        "Semi-Major Axis(m)": 6980739.136638005,
        "Time(s)": 50
    },
    {
        "Altitude(m)": 611356.8071912179,
        "Argument of Periapsis(deg)": 0.0006251367547977843,
        "Eccentricity": 0.0,
        "Inclination(deg)": 60.0,
        "Latitude(deg)": -25.041478169544032,
        "Longitude(deg)": 159.21634138145996,
        "Mean Anomaly(deg)": -29.006663127228993,
        "RAAN(deg)": 274.99747970516154,
        "Satellite Name": "Test1 1230",
        "Satellite Number": 1230,
        "Semi-Major Axis(m)": 6980739.136638005,
        "Time(s)": 60
    },
    {
        "Altitude(m)": 611170.0997385737,
        "Argument of Periapsis(deg)": 0.0007293262139307483,
        "Eccentricity": 0.0,
        "Inclination(deg)": 60.0,
        "Latitude(deg)": -24.522019084118856,
        "Longitude(deg)": 159.54943499063847,
        "Mean Anomaly(deg)": -28.386556981767193,
        "RAAN(deg)": 274.9970596560218,
        "Satellite Name": "Test1 1230",
        "Satellite Number": 1230,
        "Semi-Major Axis(m)": 6980739.136638005,
        "Time(s)": 70
    },
    {
        "Altitude(m)": 610984.7689964395,
        "Argument of Periapsis(deg)": 0.0008335156730637124,
        "Eccentricity": 0.0,
        "Inclination(deg)": 60.0,
        "Latitude(deg)": -24.001584915182846,
        "Longitude(deg)": 159.87947287642288,
        "Mean Anomaly(deg)": -27.76645083630534,
        "RAAN(deg)": 274.99663960688207,
        "Satellite Name": "Test1 1230",
        "Satellite Number": 1230,
        "Semi-Major Axis(m)": 6980739.136638005,
        "Time(s)": 80
    },
    {
        "Altitude(m)": 610800.880459985,
        "Argument of Periapsis(deg)": 0.0009377051321966765,
        "Eccentricity": 0.0,
        "Inclination(deg)": 60.0,
        "Latitude(deg)": -23.480205346774294,
        "Longitude(deg)": 160.20654706576838,
        "Mean Anomaly(deg)": -27.146344690843485,
        "RAAN(deg)": 274.9962195577423,
        "Satellite Name": "Test1 1230",
        "Satellite Number": 1230,
        "Semi-Major Axis(m)": 6980739.136638005,
        "Time(s)": 90
    },
    {
        "Altitude(m)": 610618.4988392894,
        "Argument of Periapsis(deg)": 0.0010418945913296407,
        "Eccentricity": 0.0,
        "Inclination(deg)": 60.0,
        "Latitude(deg)": -22.95790939218964,
        "Longitude(deg)": 160.5307482387297,
        "Mean Anomaly(deg)": -26.526238545381634,
        "RAAN(deg)": 274.99579950860254,
        "Satellite Name": "Test1 1230",
        "Satellite Number": 1230,
        "Semi-Major Axis(m)": 6980739.136638005,
        "Time(s)": 100
    },
    {
        "Altitude(m)": 610437.688030728,
        "Argument of Periapsis(deg)": 0.0011460840504626045,
        "Eccentricity": 0.0,
        "Inclination(deg)": 60.0,
        "Latitude(deg)": -22.434725420317633,
        "Longitude(deg)": 160.85216477848155,
        "Mean Anomaly(deg)": -25.90613239991983,
        "RAAN(deg)": 274.99537945946287,
        "Satellite Name": "Test1 1230",
        "Satellite Number": 1230,
        "Semi-Major Axis(m)": 6980739.136638005,
        "Time(s)": 110
    },
    {
        "Altitude(m)": 610258.5110888021,
        "Argument of Periapsis(deg)": 0.0012502735095955685,
        "Eccentricity": 0.0,
        "Inclination(deg)": 60.0,
        "Latitude(deg)": -21.910681181089565,
        "Longitude(deg)": 161.17088333322866,
        "Mean Anomaly(deg)": -25.28602625445798,
        "RAAN(deg)": 274.9949594103231,
        "Satellite Name": "Test1 1230",
        "Satellite Number": 1230,
        "Semi-Major Axis(m)": 6980739.136638005,
        "Time(s)": 120
    },
    {
        "Altitude(m)": 610081.030198299,
        "Argument of Periapsis(deg)": 0.0013544629687285324,
        "Eccentricity": 0.0,
        "Inclination(deg)": 60.0,
        "Latitude(deg)": -21.38580383007775,
        "Longitude(deg)": 161.48698937711893,
        "Mean Anomaly(deg)": -24.66592010899623,
        "RAAN(deg)": 274.99453936118334,
        "Satellite Name": "Test1 1230",
        "Satellite Number": 1230,
        "Semi-Major Axis(m)": 6980739.136638005,
        "Time(s)": 130
    },
    {
        "Altitude(m)": 609905.3066468972,
        "Argument of Periapsis(deg)": 0.0014586524278614966,
        "Eccentricity": 0.0,
        "Inclination(deg)": 60.0,
        "Latitude(deg)": -20.860119952271013,
        "Longitude(deg)": 161.80056625727863,
        "Mean Anomaly(deg)": -24.045813963534375,
        "RAAN(deg)": 274.9941193120436,
        "Satellite Name": "Test1 1230",
        "Satellite Number": 1230,
        "Semi-Major Axis(m)": 6980739.136638005,
        "Time(s)": 140
    },
    {
        "Altitude(m)": 609731.4007981711,
        "Argument of Periapsis(deg)": 0.0015628418869944607,
        "Eccentricity": 0.0,
        "Inclination(deg)": 60.0,
        "Latitude(deg)": -20.333655585066207,
        "Longitude(deg)": 162.11169575271103,
        "Mean Anomaly(deg)": -23.425707818072574,
        "RAAN(deg)": 274.9936992629039,
        "Satellite Name": "Test1 1230",
        "Satellite Number": 1230,
        "Semi-Major Axis(m)": 6980739.136638005,
        "Time(s)": 150
    },
    {
        "Altitude(m)": 609559.3720650242,
        "Argument of Periapsis(deg)": 0.0016670313461274247,
        "Eccentricity": 0.0,
        "Inclination(deg)": 60.0,
        "Latitude(deg)": -19.806436240502244,
        "Longitude(deg)": 162.4204586321885,
        "Mean Anomaly(deg)": -22.80560167261072,
        "RAAN(deg)": 274.99327921376414,
        "Satellite Name": "Test1 1230",
        "Satellite Number": 1230,
        "Semi-Major Axis(m)": 6980739.136638005,
        "Time(s)": 160
    },
    {
        "Altitude(m)": 609389.2788835878,
        "Argument of Periapsis(deg)": 0.0017712208052603888,
        "Eccentricity": 0.0,
        "Inclination(deg)": 60.0,
        "Latitude(deg)": -19.278486926766305,
        "Longitude(deg)": 162.7269336982686,
        "Mean Anomaly(deg)": -22.185495527148966,
        "RAAN(deg)": 274.99285916462435,
        "Satellite Name": "Test1 1230",
        "Satellite Number": 1230,
        "Semi-Major Axis(m)": 6980739.136638005,
        "Time(s)": 170
    },
    {
        "Altitude(m)": 609221.1786875398,
        "Argument of Periapsis(deg)": 0.001875410264393353,
        "Eccentricity": 0.0,
        "Inclination(deg)": 60.0,
        "Latitude(deg)": -18.749832169005167,
        "Longitude(deg)": 163.0311983431881,
        "Mean Anomaly(deg)": -21.565389381687112,
        "RAAN(deg)": 274.9924391154846,
        "Satellite Name": "Test1 1230",
        "Satellite Number": 1230,
        "Semi-Major Axis(m)": 6980739.136638005,
        "Time(s)": 180
    },
    {
        "Altitude(m)": 609055.1278829431,
        "Argument of Periapsis(deg)": 0.0019795997235263173,
        "Eccentricity": 0.0,
        "Inclination(deg)": 60.0,
        "Latitude(deg)": -18.22049602946941,
        "Longitude(deg)": 163.3333291037733,
        "Mean Anomaly(deg)": -20.94528323622531,
        "RAAN(deg)": 274.99201906634494,
        "Satellite Name": "Test1 1230",
        "Satellite Number": 1230,
        "Semi-Major Axis(m)": 6980739.136638005,
        "Time(s)": 190
    }
]